[
    {
        "Altitude(m)": 562976.3769290149,
        "Argument of Periapsis(deg)": 0.013245982221427002,
        "Eccentricity": 0.0,
        "Inclination(deg)": 53.0,
        "Latitude(deg)": -31.231920869035427,
        "Longitude(deg)": -64.54760147496772,
        "Mean Anomaly(deg)": -139.81681426484488,
        "RAAN(deg)": 189.98028673705605,
        "Satellite Name": "Starlink Shell 1 848",
        "Satellite Number": 848,
        "Semi-Major Axis(m)": 6931778.249405717,
        "Time(s)": 380
    },
    {
        "Altitude(m)": 563151.6851809474,
        "Argument of Periapsis(deg)": 0.013594560700938237,
        "Eccentricity": 0.0,
        "Inclination(deg)": 53.0,
        "Latitude(deg)": -31.67772340359819,
        "Longitude(deg)": -64.07328216500704,
        "Mean Anomaly(deg)": -139.18998306128813,
        "RAAN(deg)": 189.97976796697859,
        "Satellite Name": "Starlink Shell 1 848",
        "Satellite Number": 848,
        "Semi-Major Axis(m)": 6931778.249405717,
        "Time(s)": 390
    },
    {
        "Altitude(m)": 563326.9098165904,
        "Argument of Periapsis(deg)": 0.013943139180449475,
        "Eccentricity": 0.0,
        "Inclination(deg)": 53.0,
        "Latitude(deg)": -32.12137858163732,
        "Longitude(deg)": -63.59404381463822,
        "Mean Anomaly(deg)": -138.56315185773138,
        "RAAN(deg)": 189.9792491969011,
        "Satellite Name": "Starlink Shell 1 848",
        "Satellite Number": 848,
        "Semi-Major Axis(m)": 6931778.249405717,
        "Time(s)": 400
    },
    {
        "Altitude(m)": 563501.9845882964,
        "Argument of Periapsis(deg)": 0.014291717659960712,
        "Eccentricity": 0.0,
        "Inclination(deg)": 53.0,
        "Latitude(deg)": -32.56282972590834,
        "Longitude(deg)": -63.10977659585567,
        "Mean Anomaly(deg)": -137.9363206541747,
        "RAAN(deg)": 189.97873042682363,
        "Satellite Name": "Starlink Shell 1 848",
        "Satellite Number": 848,
        "Semi-Major Axis(m)": 6931778.249405717,
        "Time(s)": 410
    },
    {
        "Altitude(m)": 563676.8431691596,
        "Argument of Periapsis(deg)": 0.014640296139471948,
        "Eccentricity": 0.0,
        "Inclination(deg)": 53.0,
        "Latitude(deg)": -33.002018858500556,
        "Longitude(deg)": -62.62037003515317,
        "Mean Anomaly(deg)": -137.30948945061797,
        "RAAN(deg)": 189.97821165674614,
        "Satellite Name": "Starlink Shell 1 848",
        "Satellite Number": 848,
        "Semi-Major Axis(m)": 6931778.249405717,
        "Time(s)": 420
    },
    {
        "Altitude(m)": 563851.4191827156,
        "Argument of Periapsis(deg)": 0.014988874618983185,
        "Eccentricity": 0.0,
        "Inclination(deg)": 53.0,
        "Latitude(deg)": -33.438886668442116,
        "Longitude(deg)": -62.12571254980125,
        "Mean Anomaly(deg)": -136.68265824706125,
        "RAAN(deg)": 189.97769288666865,
        "Satellite Name": "Starlink Shell 1 848",
        "Satellite Number": 848,
        "Semi-Major Axis(m)": 6931778.249405717,
        "Time(s)": 430
    },
    {
        "Altitude(m)": 564025.646232645,
        "Argument of Periapsis(deg)": 0.015337453098494424,
        "Eccentricity": 0.0,
        "Inclination(deg)": 53.0,
        "Latitude(deg)": -33.8733724792693,
        "Longitude(deg)": -61.62569099026024,
        "Mean Anomaly(deg)": -136.0558270435045,
        "RAAN(deg)": 189.9771741165912,
        "Satellite Name": "Starlink Shell 1 848",
        "Satellite Number": 848,
        "Semi-Major Axis(m)": 6931778.249405717,
        "Time(s)": 440
    },
    {
        "Altitude(m)": 564199.4579324817,
        "Argument of Periapsis(deg)": 0.01568603157800566,
        "Eccentricity": 0.0,
        "Inclination(deg)": 53.0,
        "Latitude(deg)": -34.30541421663705,
        "Longitude(deg)": -61.12019170203198,
        "Mean Anomaly(deg)": -135.42899583994787,
        "RAAN(deg)": 189.97665534651375,
        "Satellite Name": "Starlink Shell 1 848",
        "Satellite Number": 848,
        "Semi-Major Axis(m)": 6931778.249405717,
        "Time(s)": 450
    },
    {
        "Altitude(m)": 564372.7879352901,
        "Argument of Periapsis(deg)": 0.0160346100575169,
        "Eccentricity": 0.0,
        "Inclination(deg)": 53.0,
        "Latitude(deg)": -34.73494837605222,
        "Longitude(deg)": -60.60910008165075,
        "Mean Anomaly(deg)": -134.8021646363911,
        "RAAN(deg)": 189.97613657643626,
        "Satellite Name": "Starlink Shell 1 848",
        "Satellite Number": 848,
        "Semi-Major Axis(m)": 6931778.249405717,
        "Time(s)": 460
    },
    {
        "Altitude(m)": 564545.5699633171,
        "Argument of Periapsis(deg)": 0.016383188537028134,
        "Eccentricity": 0.0,
        "Inclination(deg)": 53.0,
        "Latitude(deg)": -35.161909990821165,
        "Longitude(deg)": -60.092300140158706,
        "Mean Anomaly(deg)": -134.17533343283444,
        "RAAN(deg)": 189.9756178063588,
        "Satellite Name": "Starlink Shell 1 848",
        "Satellite Number": 848,
        "Semi-Major Axis(m)": 6931778.249405717,
        "Time(s)": 470
    },
    {
        "Altitude(m)": 564717.7378376226,
        "Argument of Periapsis(deg)": 0.01673176701653937,
        "Eccentricity": 0.0,
        "Inclination(deg)": 53.0,
        "Latitude(deg)": -35.586232600314695,
        "Longitude(deg)": -59.569675587429074,
        "Mean Anomaly(deg)": -133.5485022292777,
        "RAAN(deg)": 189.97509903628134,
        "Satellite Name": "Starlink Shell 1 848",
        "Satellite Number": 848,
        "Semi-Major Axis(m)": 6931778.249405717,
        "Time(s)": 480
    },
    {
        "Altitude(m)": 564889.2255076038,
        "Argument of Periapsis(deg)": 0.017080345496050607,
        "Eccentricity": 0.0,
        "Inclination(deg)": 53.0,
        "Latitude(deg)": -36.007848218657486,
        "Longitude(deg)": -59.04110941209442,
        "Mean Anomaly(deg)": -132.92167102572097,
        "RAAN(deg)": 189.97458026620384,
        "Satellite Name": "Starlink Shell 1 848",
        "Satellite Number": 848,
        "Semi-Major Axis(m)": 6931778.249405717,
        "Time(s)": 490
    },
    {
        "Altitude(m)": 565059.9670805023,
        "Argument of Periapsis(deg)": 0.017428923975561842,
        "Eccentricity": 0.0,
        "Inclination(deg)": 53.0,
        "Latitude(deg)": -36.42668730396412,
        "Longitude(deg)": -58.50648347048155,
        "Mean Anomaly(deg)": -132.29483982216428,
        "RAAN(deg)": 189.97406149612638,
        "Satellite Name": "Starlink Shell 1 848",
        "Satellite Number": 848,
        "Semi-Major Axis(m)": 6931778.249405717,
        "Time(s)": 500
    },
    {
        "Altitude(m)": 565229.8968507715,
        "Argument of Periapsis(deg)": 0.01777750245507308,
        "Eccentricity": 0.0,
        "Inclination(deg)": 53.0,
        "Latitude(deg)": -36.84267872825422,
        "Longitude(deg)": -57.96567959796798,
        "Mean Anomaly(deg)": -131.66800861860753,
        "RAAN(deg)": 189.9735427260489,
        "Satellite Name": "Starlink Shell 1 848",
        "Satellite Number": 848,
        "Semi-Major Axis(m)": 6931778.249405717,
        "Time(s)": 510
    },
    {
        "Altitude(m)": 565398.949329398,
        "Argument of Periapsis(deg)": 0.018126080934584315,
        "Eccentricity": 0.0,
        "Inclination(deg)": 53.0,
        "Latitude(deg)": -37.25574974818613,
        "Longitude(deg)": -57.418579217570866,
        "Mean Anomaly(deg)": -131.04117741505084,
        "RAAN(deg)": 189.97302395597143,
        "Satellite Name": "Starlink Shell 1 848",
        "Satellite Number": 848,
        "Semi-Major Axis(m)": 6931778.249405717,
        "Time(s)": 520
    },
    {
        "Altitude(m)": 565567.0592730679,
        "Argument of Periapsis(deg)": 0.018474659414095554,
        "Eccentricity": 0.0,
        "Inclination(deg)": 53.0,
        "Latitude(deg)": -37.66582597676548,
        "Longitude(deg)": -56.86506295921072,
        "Mean Anomaly(deg)": -130.41434621149412,
        "RAAN(deg)": 189.97250518589394,
        "Satellite Name": "Starlink Shell 1 848",
        "Satellite Number": 848,
        "Semi-Major Axis(m)": 6931778.249405717,
        "Time(s)": 530
    },
    {
        "Altitude(m)": 565734.1617132219,
        "Argument of Periapsis(deg)": 0.018823237893606792,
        "Eccentricity": 0.0,
        "Inclination(deg)": 53.0,
        "Latitude(deg)": -38.07283135619652,
        "Longitude(deg)": -56.30501180311084,
        "Mean Anomaly(deg)": -129.78751500793743,
        "RAAN(deg)": 189.97198641581647,
        "Satellite Name": "Starlink Shell 1 848",
        "Satellite Number": 848,
        "Semi-Major Axis(m)": 6931778.249405717,
        "Time(s)": 540
    },
    {
        "Altitude(m)": 565900.1919849851,
        "Argument of Periapsis(deg)": 0.019171816373118027,
        "Eccentricity": 0.0,
        "Inclination(deg)": 53.0,
        "Latitude(deg)": -38.47668813205359,
        "Longitude(deg)": -55.73830672217229,
        "Mean Anomaly(deg)": -129.16068380438062,
        "RAAN(deg)": 189.97146764573898,
        "Satellite Name": "Starlink Shell 1 848",
        "Satellite Number": 848,
        "Semi-Major Axis(m)": 6931778.249405717,
        "Time(s)": 550
    },
    {
        "Altitude(m)": 566065.0857559203,
        "Argument of Periapsis(deg)": 0.019520394852629266,
        "Eccentricity": 0.0,
        "Inclination(deg)": 53.0,
        "Latitude(deg)": -38.87731682896714,
        "Longitude(deg)": -55.164828336797655,
        "Mean Anomaly(deg)": -128.53385260082393,
        "RAAN(deg)": 189.97094887566152,
        "Satellite Name": "Starlink Shell 1 848",
        "Satellite Number": 848,
        "Semi-Major Axis(m)": 6931778.249405717,
        "Time(s)": 560
    }
]